#aV2012 12 17  0  0  0.00000000     288 DD+AD WGS84 FIT  NGA
## 1719  86400.00000000   300.00000000 56278 0.0000000000000
+   31     1  2  3  4  5  6  7  8  9 10 11 12 13 14 15 16 17
+         18 19 20 21 22 23 24 25 26 28 29 30 31 32  0  0  0
+          0  0  0  0  0  0  0  0  0  0  0  0  0  0  0  0  0
+          0  0  0  0  0  0  0  0  0  0  0  0  0  0  0  0  0
+          0  0  0  0  0  0  0  0  0  0  0  0  0  0  0  0  0
++         2  2  2  2  2  2  2  2  2  2  2  2  2  2  2  2  2
++         2  2  2  2  2  2  2  2  2  2  2  2  2  2  2  0  0
++         0  0  0  0  0  0  0  0  0  0  0  0  0  0  0  0  0
++         0  0  0  0  0  0  0  0  0  0  0  0  0  0  0  0  0
++         0  0  0  0  0  0  0  0  0  0  0  0  0  0  0  0  0
%c cc cc ccc ccc cccc cccc cccc cccc ccccc ccccc ccccc ccccc
%c cc cc ccc ccc cccc cccc cccc cccc ccccc ccccc ccccc ccccc
%f  0.0000000  0.000000000  0.00000000000  0.000000000000000
%f  0.0000000  0.000000000  0.00000000000  0.000000000000000
%i    0    0    0    0      0      0      0      0         0
%i    0    0    0    0      0      0      0      0         0
/*      NGA, ST. LOUIS,MO.                                  
/*   EPHEMERIS COMPUTED FROM  1 DAYS OF DATA
/*   EPOCHA SMOOTHER  
/* CCCCCCCCCCCCCCCCCCCCCCCCCCCCCCCCCCCCCCCCCCCCCCCCCCCCCCCCC
*  2012 12 17 18 55  0.00000000                                                 
P  1  -3575.223090  17038.550018 -20065.291791    288.052074                    
V  1 -23656.561937   9444.225406  12309.870191      0.020838                    
P  2  21187.618879 -14576.524310   5595.665227    411.888335                    
V  2   7990.615308    446.614482 -30477.178332      0.010062                    
P  3  -9581.642728  19981.295986  13971.357722    142.916877                    
V  3  -3794.068258 -18621.004909  23440.629167      0.049641                    
P  4  24985.627587  -4351.007009  -8656.174140     78.045799                    
V  4  -8395.161781   7065.725109 -28417.608558      0.111038                    
P  5  11418.274750 -10698.927550  21443.491773   -373.361329                    
V  5  22031.706846  16168.508268  -3515.942606     -0.022571                    
P  6 -13678.235872  13922.583311  17962.315993    420.979977                    
V  6  -1164.558218 -22869.423963  17260.457292     -0.131554                    
P  7  12647.009874  10145.893271  21135.111116    158.207247                    
V  7 -24267.966076  10985.405209   8989.174226      0.044484                    
P  8  22270.934520   2708.109433  14771.892607      3.540132                    
V  8 -17118.282047   6472.079977  24221.143642      0.001744                    
P  9  12948.142677 -17481.169393 -15801.641360    207.296607                    
V  9  17831.781147  -6761.466463  22835.359991      0.027559                    
P 10  22804.158042   5855.845082  12407.603579    -62.583139                    
V 10  11372.171105  11642.124249 -25399.654023     -0.015057                    
P 11  -6974.133201  21370.526907 -14358.333069   -334.227104                    
V 11 -15999.835002   8814.907784  21830.048683     -0.038382                    
P 12  -5611.613987 -19129.071741 -17666.315150    107.397213                    
V 12  18400.527643  12600.188802 -19318.587804      0.020427                    
P 13   5669.635723  21287.594128  14618.852930    159.442105                    
V 13  -5324.274404  18108.510452 -24189.052457     -0.028384                    
P 14 -14191.981601  -4468.946148 -21812.532822    218.398061                    
V 14   4845.834881 -27692.355127   2362.362663      0.005424                    
P 15   4593.798222 -25761.877372   3677.019843   -102.485582                    
V 15   3180.216119   4980.802873  31052.623399     -0.010549                    
P 16 -11899.750225   9192.108982  21913.962155   -250.915774                    
V 16 -21642.079428 -17361.170366  -4155.321870     -0.004066                    
P 17  14763.870373   3002.672474 -21686.102857     68.480640                    
V 17  -3845.976583  27716.133355    967.217350     -0.035514                    
P 18 -20646.008064 -16928.470493   2087.123078    229.876901                    
V 18   3826.891455  -1547.911014  30643.737457      0.018485                    
P 19  -8600.695302  24266.272769   5511.104594   -331.788304                    
V 19  -1633.924894  -7624.578360  30992.041812     -0.033524                    
P 20   7168.717236  19533.926458 -16718.579068     76.789284                    
V 20 -18856.713718  -9482.850209 -19288.419971      0.012578                    
P 21 -16786.924529  -8390.965040  19512.042500   -268.937566                    
V 21  21044.010336 -10766.014682  13295.966927     -0.023404                    
P 22 -23350.866680  -7797.242492  -9950.890592    153.601476                    
V 22  -8426.387145 -10372.211569  27263.837853      0.006905                    
P 23     68.010209  26016.217978   4272.388383    133.095031                    
V 23  -3759.757735   5021.196615 -31316.746281     -0.038088                    
P 24   7550.437637 -17641.063343 -18354.990280      2.199839                    
V 24  21835.629035  -8338.745052  17009.644751     -0.006347                    
P 25 -16427.897416 -18998.536497  -8788.046394     57.044848                    
V 25  10318.871243   4592.341139 -29263.506887      0.022484                    
P 26  12462.586629 -18911.407396  12950.102631   -171.461656                    
V 26  -1185.486852  17677.264984  26070.338310      0.135640                    
P 28  22496.879875  12277.587870  -6785.603703    214.883295                    
V 28   6008.399965   7399.662732  30510.773341      0.036530                    
P 29  -6117.098253 -22139.960037  13421.901725    388.462894                    
V 29   4536.786904 -16446.798406 -25121.158724      0.039754                    
P 30 -20213.582790   1821.085153  16768.606013   -281.335411                    
V 30 -18099.616492 -12605.977043 -20052.034016      0.123049                    
P 31 -25210.729423   7557.559329  -4321.257725    292.795633                    
V 31   4462.559311  -4012.938463 -31395.117945      0.020583                    
P 32  -2385.808685  17018.928801 -20217.591588   -517.788824                    
V 32 -20219.821006 -16265.068694 -10711.589408     -0.034611                    
EOF
